NORAD_CAT_ID,OBJECT_NAME,OBJECT_TYPE,EPOCH,MEAN_MOTION,ECCENTRICITY,INCLINATION,RA_OF_ASC_NODE,ARG_OF_PERICENTER,MEAN_ANOMALY,BSTAR,MEAN_MOTION_DOT,MEAN_MOTION_DDOT,TLE_LINE0,TLE_LINE1,TLE_LINE2,SEMIMAJOR_AXIS,PERIOD,APOGEE,PERIGEE,DECAYED
51135.0,STARLINK-3363,PAYLOAD,2023-02-18 13:49:23,15.08836009,9.71e-05,53.2127,265.0593,89.0169,271.0934,0.00053159,8.182e-05,0.0,0 STARLINK-3363,1 51135U 22005AH  23049.57596711  .00008182  00000-0  53159-3 0  9998,2 51135  53.2127 265.0593 0000971  89.0169 271.0934 15.08836009 60380,6917.893,95.438,540.429,539.086,0.0
51135.0,STARLINK-3363,PAYLOAD,2023-02-18 21:46:19,15.08853868,0.0001166,53.2134,263.5738,93.2822,266.8304,0.00082907,0.00012936,0.0,0 STARLINK-3363,1 51135U 22005AH  23049.90716584  .00012936  00000-0  82907-3 0  9992,2 51135  53.2134 263.5738 0001166  93.2822 266.8304 15.08853868 61557,6917.838,95.437,540.51,538.896,0.0
51135.0,STARLINK-3363,PAYLOAD,2023-02-19 07:18:37,15.08847313,0.0001255,53.2128,261.7897,82.7532,277.3603,0.00030025,4.495e-05,0.0,0 STARLINK-3363,1 51135U 22005AH  23050.30460609  .00004495  00000-0  30025-3 0  9997,2 51135  53.2128 261.7897 0001255  82.7532 277.3603 15.08847313 61610,6917.858,95.437,540.591,538.855,0.0
51135.0,STARLINK-3363,PAYLOAD,2023-02-19 13:40:10,15.08842696,0.0001331,53.2121,260.5998,80.3977,279.7165,0.0001234,1.677e-05,0.0,0 STARLINK-3363,1 51135U 22005AH  23050.56956686  .00001677  00000-0  12340-3 0  9999,2 51135  53.2121 260.5998 0001331  80.3977 279.7165 15.08842696 60532,6917.872,95.437,540.658,538.816,0.0
51135.0,STARLINK-3363,PAYLOAD,2023-02-19 21:37:06,15.08840558,0.0001338,53.2135,259.1135,75.6322,284.4819,0.00013875,1.921e-05,0.0,0 STARLINK-3363,1 51135U 22005AH  23050.90076852  .00001921  00000-0  13875-3 0  9991,2 51135  53.2135 259.1135 0001338  75.6322 284.4819 15.08840558 61706,6917.879,95.438,540.669,538.818,0.0
51135.0,STARLINK-3363,PAYLOAD,2023-02-20 13:30:57,15.08844823,0.0001304,53.2135,256.1382,79.6125,280.5014,0.00013697,1.893e-05,0.0,0 STARLINK-3363,1 51135U 22005AH  23051.56316633  .00001893  00000-0  13697-3 0  9998,2 51135  53.2135 256.1382 0001304  79.6125 280.5014 15.08844823 60684,6917.866,95.437,540.633,538.829,0.0
51135.0,STARLINK-3363,PAYLOAD,2023-02-20 19:52:27,15.08876249,0.0001082,53.2147,254.9486,75.1842,284.927,0.00031643,4.757e-05,0.0,0 STARLINK-3363,1 51135U 22005AH  23051.82809840  .00004757  00000-0  31643-3 0  9997,2 51135  53.2147 254.9486 0001082  75.1842 284.9270 15.08876249 61846,6917.77,95.435,540.383,538.886,0.0
51135.0,STARLINK-3363,PAYLOAD,2023-02-20 23:03:12,15.08888022,0.0001315,53.216,254.3517,94.8453,265.2689,0.00034152,5.159e-05,0.0,0 STARLINK-3363,1 51135U 22005AH  23051.96056651  .00005159  00000-0  34152-3 0  9991,2 51135  53.2160 254.3517 0001315  94.8453 265.2689 15.08888022 61865,6917.734,95.435,540.508,538.689,0.0
51135.0,STARLINK-3363,PAYLOAD,2023-02-21 13:21:44,15.08828846,0.0001272,53.2151,251.6778,90.0114,270.1024,-2.0189e-05,-6.09e-06,0.0,0 STARLINK-3363,1 51135U 22005AH  23052.55676878 -.00000609  00000-0 -20189-4 0  9999,2 51135  53.2151 251.6778 0001272  90.0114 270.1024 15.08828846 61954,6917.914,95.438,540.659,538.9,0.0
51135.0,STARLINK-3363,PAYLOAD,2023-02-21 19:43:16,15.08835016,0.000136,53.214,250.4883,93.4956,266.6191,-8.3205e-05,-1.612e-05,0.0,0 STARLINK-3363,1 51135U 22005AH  23052.82172018 -.00001612  00000-0 -83205-4 0  9999,2 51135  53.2140 250.4883 0001360  93.4956 266.6191 15.08835016 61991,6917.896,95.438,540.701,538.82,0.0
51135.0,STARLINK-3363,PAYLOAD,2023-02-22 13:12:31,15.08830321,0.0001319,53.2145,247.2168,96.8673,263.2469,-0.00010987,-2.036e-05,0.0,0 STARLINK-3363,1 51135U 22005AH  23053.55036375 -.00002036  00000-0 -10987-3 0  9992,2 51135  53.2145 247.2168 0001319  96.8673 263.2469 15.08830321 60986,6917.91,95.438,540.687,538.863,0.0
51135.0,STARLINK-3363,PAYLOAD,2023-02-22 19:34:04,15.08831378,0.0001295,53.2142,246.0279,94.0527,266.0614,-8.7172e-05,-1.675e-05,0.0,0 STARLINK-3363,1 51135U 22005AH  23053.81532447 -.00001675  00000-0 -87172-4 0  9991,2 51135  53.2142 246.0279 0001295  94.0527 266.0614 15.08831378 61026,6917.907,95.438,540.668,538.876,0.0
51135.0,STARLINK-3363,PAYLOAD,2023-02-23 05:06:22,15.08842511,0.0001431,53.2145,244.2434,96.2359,263.8796,-0.00019764,-3.432e-05,0.0,0 STARLINK-3363,1 51135U 22005AH  23054.21275921 -.00003432  00000-0 -19764-3 0  9991,2 51135  53.2145 244.2434 0001431  96.2359 263.8796 15.08842511 62209,6917.873,95.437,540.728,538.748,0.0
51135.0,STARLINK-3363,PAYLOAD,2023-02-23 13:03:18,15.08830264,0.0001392,53.2144,242.7561,101.0048,259.11,0.00044097,6.735e-05,0.0,0 STARLINK-3363,1 51135U 22005AH  23054.54396818  .00006735  00000-0  44097-3 0  9990,2 51135  53.2144 242.7561 0001392 101.0048 259.1100 15.08830264 62252,6917.91,95.438,540.738,538.812,0.0
51135.0,STARLINK-3363,PAYLOAD,2023-02-23 21:00:14,15.08845532,0.0001388,53.2148,241.2695,99.8202,260.2947,0.00036938,5.597e-05,0.0,0 STARLINK-3363,1 51135U 22005AH  23054.87516223  .00005597  00000-0  36938-3 0  9990,2 51135  53.2148 241.2695 0001388  99.8202 260.2947 15.08845532 61186,6917.863,95.437,540.689,538.768,0.0
51135.0,STARLINK-3363,PAYLOAD,2023-02-23 22:35:37,15.08848289,0.0001388,53.2147,240.9718,99.0909,261.024,0.00044698,6.834e-05,0.0,0 STARLINK-3363,1 51135U 22005AH  23054.94140249  .00006834  00000-0  44698-3 0  9996,2 51135  53.2147 240.9718 0001388  99.0909 261.0240 15.08848289 62316,6917.855,95.437,540.68,538.76,0.0
51135.0,STARLINK-3363,PAYLOAD,2023-02-24 04:57:09,15.08841541,0.0001512,53.2154,239.7814,92.3172,267.7993,0.00024779,3.658e-05,0.0,0 STARLINK-3363,1 51135U 22005AH  23055.20636512  .00003658  00000-0  24779-3 0  9998,2 51135  53.2154 239.7814 0001512  92.3172 267.7993 15.08841541 62350,6917.876,95.437,540.787,538.695,0.0
51135.0,STARLINK-3363,PAYLOAD,2023-02-24 12:54:05,15.08835057,0.0001549,53.2161,238.2963,98.8617,261.2551,6.3998e-05,7.31e-06,0.0,0 STARLINK-3363,1 51135U 22005AH  23055.53756860  .00000731  00000-0  63998-4 0  9999,2 51135  53.2161 238.2963 0001549  98.8617 261.2551 15.08835057 61287,6917.895,95.438,540.832,538.689,0.0
51135.0,STARLINK-3363,PAYLOAD,2023-02-24 20:51:01,15.08835843,0.0001474,53.2165,236.8101,98.6433,261.4726,5.7858e-05,6.33e-06,0.0,0 STARLINK-3363,1 51135U 22005AH  23055.86876940  .00000633  00000-0  57858-4 0  9996,2 51135  53.2165 236.8101 0001474  98.6433 261.4726 15.08835843 62459,6917.893,95.438,540.778,538.738,0.0
51135.0,STARLINK-3363,PAYLOAD,2023-02-25 04:47:57,15.08845125,0.0001288,53.2154,235.3216,90.0946,270.0193,0.00023709,3.488e-05,0.0,0 STARLINK-3363,1 51135U 22005AH  23056.19996622  .00003488  00000-0  23709-3 0  9991,2 51135  53.2154 235.3216 0001288  90.0946 270.0193 15.08845125 62500,6917.865,95.437,540.621,538.839,0.0
51135.0,STARLINK-3363,PAYLOAD,2023-02-25 20:41:48,15.08860735,0.0001253,53.2153,232.3478,85.7624,274.3511,0.00083378,0.00013014,0.0,0 STARLINK-3363,1 51135U 22005AH  23056.86236201  .00013014  00000-0  83378-3 0  9999,2 51135  53.2153 232.3478 0001253  85.7624 274.3511 15.08860735 61483,6917.817,95.436,540.549,538.815,0.0
51135.0,STARLINK-3363,PAYLOAD,2023-02-26 04:38:43,15.08840298,9.68e-05,53.2155,230.86,95.0284,265.0818,-0.00022618,-3.886e-05,0.0,0 STARLINK-3363,1 51135U 22005AH  23057.19356177 -.00003886  00000-0 -22618-3 0  9999,2 51135  53.2155 230.8600 0000968  95.0284 265.0818 15.08840298 62652,6917.879,95.438,540.414,539.075,0.0
51135.0,STARLINK-3363,PAYLOAD,2023-02-26 20:32:35,15.08851333,0.0001397,53.2151,227.8874,89.0035,271.1118,0.0006673,0.00010351,0.0,0 STARLINK-3363,1 51135U 22005AH  23057.85596315  .00010351  00000-0  66730-3 0  9998,2 51135  53.2151 227.8874 0001397  89.0035 271.1118 15.08851333 61631,6917.846,95.437,540.677,538.744,0.0
51135.0,STARLINK-3363,PAYLOAD,2023-02-26 22:07:58,15.08852885,0.0001391,53.2151,227.5899,88.9107,271.2045,0.00074809,0.00011642,0.0,0 STARLINK-3363,1 51135U 22005AH  23057.92220284  .00011642  00000-0  74809-3 0  9995,2 51135  53.2151 227.5899 0001391  88.9107 271.2045 15.08852885 62765,6917.841,95.437,540.668,538.744,0.0
51135.0,STARLINK-3363,PAYLOAD,2023-02-27 10:51:03,15.08848466,0.0001663,53.2149,225.2111,81.9771,278.141,0.0010452,0.00016389,0.0,0 STARLINK-3363,1 51135U 22005AH  23058.45212905  .00016389  00000-0  10452-2 0  9991,2 51135  53.2149 225.2111 0001663  81.9771 278.1410 15.08848466 62847,6917.855,95.437,540.87,538.569,0.0
51135.0,STARLINK-3363,PAYLOAD,2023-02-27 17:12:35,15.08892403,0.0001455,53.2149,224.0217,81.9435,278.1723,0.0027419,0.00043683,0.0,0 STARLINK-3363,1 51135U 22005AH  23058.71708253  .00043683  00000-0  27419-2 0  9994,2 51135  53.2149 224.0217 0001455  81.9435 278.1723 15.08892403 62888,6917.72,95.434,540.592,538.579,0.0
51135.0,STARLINK-3363,PAYLOAD,2023-02-27 21:58:45,15.08867541,0.0001546,53.2149,223.13,79.3107,280.8059,0.0018649,0.00029539,0.0,0 STARLINK-3363,1 51135U 22005AH  23058.91580446  .00029539  00000-0  18649-2 0  9997,2 51135  53.2149 223.1300 0001546  79.3107 280.8059 15.08867541 62910,6917.796,95.436,540.731,538.592,0.0
51135.0,STARLINK-3363,PAYLOAD,2023-02-28 13:52:37,15.08835696,0.0001438,53.2154,220.1564,81.1149,279.0006,0.000377,5.716e-05,0.0,0 STARLINK-3363,1 51135U 22005AH  23059.57821096  .00005716  00000-0  37700-3 0  9990,2 51135  53.2154 220.1564 0001438  81.1149 279.0006 15.08835696 61896,6917.894,95.438,540.753,538.764,0.0
51135.0,STARLINK-3363,PAYLOAD,2023-02-28 15:28:00,15.08838336,0.0001563,53.2153,219.8588,92.5064,267.6107,0.00025482,3.77e-05,0.0,0 STARLINK-3363,1 51135U 22005AH  23059.64445073  .00003770  00000-0  25482-3 0  9997,2 51135  53.2153 219.8588 0001563  92.5064 267.6107 15.08838336 63023,6917.885,95.438,540.832,538.669,0.0
51135.0,STARLINK-3363,PAYLOAD,2023-02-28 17:03:23,15.08839891,0.0001567,53.2153,219.5614,93.0072,267.11,0.00029757,4.451e-05,0.0,0 STARLINK-3363,1 51135U 22005AH  23059.71069060  .00004451  00000-0  29757-3 0  9999,2 51135  53.2153 219.5614 0001567  93.0072 267.1100 15.08839891 61910,6917.881,95.438,540.83,538.662,0.0
